KAZEOSAT 2              
1 40010U 14033A   26170.85708554  .00000962  00000+0  11733-3 0  9998
2 40010  97.5402  10.3273 0007588 320.0964  39.9693 14.85474943649357
HODOYOSHI-4             
1 40011U 14033B   26170.85815009  .00000833  00000+0  95792-4 0  9998
2 40011  97.5450 355.5508 0022351 298.9512  60.9464 14.88131317649205
DEIMOS-2                
1 40013U 14033D   26170.86268249  .00001197  00000+0  11823-3 0  9995
2 40013  97.5817  45.2570 0001374  56.6165 303.5186 14.93730044638125
HODOYOSHI-3             
1 40015U 14033F   26170.34065076  .00000758  00000+0  93399-4 0  9994
2 40015  97.6420 333.2944 0032488 350.1791   9.8786 14.85392088647945
SPOT 7                  
1 40053U 14034A   26170.85264858  .00000113  00000+0  32354-4 0  9991
2 40053  98.0623 233.2759 0001253  95.5381 264.5963 14.60959574637523
SKYSAT-B                
1 40072U 14037D   26170.34417486  .00001009  00000+0  11651-3 0  9997
2 40072  98.3840 129.4321 0004158 272.5492  87.5247 14.88032683646280
WORLDVIEW-3 (WV-3)      
1 40115U 14048A   26170.86257411  .00000624  00000+0  79315-4 0  9998
2 40115  97.8566 245.6586 0000770  22.0597 338.0651 14.85025626642309
GAOFEN-2                
1 40118U 14049A   26170.87905444  .00000604  00000+0  85070-4 0  9992
2 40118  98.0104 235.0839 0006327 216.0750 144.0036 14.80901104639630
YAOGAN-21               
1 40143U 14053A   26170.85042449  .00004895  00000+0  19053-3 0  9993
2 40143  97.1469 210.9717 0009870  86.3253 273.9115 15.26402515655362
YAOGAN-22               
1 40275U 14063A   26170.84747551 -.00000025  00000+0  58300-4 0  9996
2 40275 100.7728 322.1649 0006406 179.3860 180.7260 13.15531021560166
ASNARO                  
1 40298U 14070A   26170.85936323  .00005157  00000+0  24621-3 0  9995
2 40298  97.3448 246.9011 0005903 156.3416 203.8091 15.19464609644413
YAOGAN-24               
1 40310U 14072A   26170.86112970  .00000294  00000+0  50074-4 0  9996
2 40310  98.1499 308.2217 0012571 254.0792 105.9032 14.76224727624114
CBERS 4                 
1 40336U 14079A   26170.82528948 -.00000018  00000+0  85748-5 0  9995
2 40336  98.3525 227.5743 0001744  62.2891 297.8472 14.35509300604339
YAOGAN-26               
1 40362U 14088A   26170.84960053  .00011274  00000+0  22156-3 0  9990
2 40362  97.0647 170.9958 0005784  62.0947 298.0889 15.47431510638115
SMAP                    
1 40376U 15003A   26170.81494455  .00000310  00000+0  69147-4 0  9999
2 40376  98.1275 177.8722 0001354  96.8202 263.3154 14.63368496608006
KOMPSAT-3A              
1 40536U 15014A   26170.81748593  .00023776  00000+0  34260-3 0  9992
2 40536  97.6890 162.3725 0056741 164.9638 195.3318 15.54096657622227
SENTINEL-2A             
1 40697U 15028A   26170.80210684  .00000108  00000+0  57960-4 0  9996
2 40697  98.5681 245.6167 0001103  91.7226 268.4084 14.30816128574101
GAOFEN-8                
1 40701U 15030A   26170.87095914  .00020720  00000+0  42497-3 0  9999
2 40701  97.6904   4.4023 0008959 176.8304 183.3002 15.46040138611863
CARBONITE 1 (CBNT-1)    
1 40718U 15032D   26170.81288477  .00001137  00000+0  14391-3 0  9994
2 40718  97.6509 348.7690 0013076 288.8991  71.0806 14.83593728589731
YAOGAN-27               
1 40878U 15040A   26170.91735120  .00000007  00000+0  12991-3 0  9992
2 40878 100.1157 157.1818 0007750 203.6186 156.4573 13.16070831518027
GAOFEN-9 01             
1 40894U 15047A   26170.82916646  .00000725  00000+0  95068-4 0  9995
2 40894  97.6279 206.4040 0028552 129.5121 230.8625 14.82887958580588
YAOGAN-28               
1 41026U 15064A   26170.87770438  .00005375  00000+0  20249-3 0  9998
2 41026  97.3083 309.0843 0010888 173.8478 186.2897 15.27448646591097
YAOGAN-29               
1 41038U 15069A   26170.87653383 -.00000376  00000+0 -39493-4 0  9995
2 41038  98.0022 199.5139 0002495  49.7958 310.3473 14.83084768571023
KENT RIDGE 1            
1 41167U 15077B   26170.58638348  .00003326  00000+0  10531-3 0  9996
2 41167  14.9791 248.1477 0008250 272.4275  87.5102 15.23144229581469
GAOFEN-4                
1 41194U 15083A   26170.85372404 -.00000340  00000+0  00000+0 0  9991
2 41194   0.3655  83.7535 0004246 119.1504 118.1954  1.00273464 38555
JASON-3                 
1 41240U 16002A   26170.87641500 -.00000050  00000+0  47611-4 0  9995
2 41240  66.0406 120.1811 0008484 272.6626  87.3421 12.87628096487591
SENTINEL-3A             
1 41335U 16011A   26170.81136042  .00000027  00000+0  29289-4 0  9998
2 41335  98.6249 238.1574 0001415  99.4675 260.6666 14.26733276538433
ZIYUAN 3-02 (ZY 3-02)   
1 41556U 16033A   26170.88649519  .00004352  00000+0  19785-3 0  9996
2 41556  97.3832 246.6100 0012366 281.0781  78.9064 15.21200935558391
CARTOSAT-2C             
1 41599U 16040A   26170.82690137  .00002572  00000+0  12530-3 0  9990
2 41599  97.4477 230.7691 0010218 122.7248 237.4973 15.19207199554119
SKYSAT-C1               
1 41601U 16040C   26170.56114831  .00007375  00000+0  21024-3 0  9991
2 41601  96.9557 202.1525 0003270  53.7576 306.3971 15.36334265558237
LAPAN-A3                
1 41603U 16040E   26170.86719319  .00002695  00000+0  86474-4 0  9999
2 41603  97.1491 166.9248 0010561  16.7454 343.4135 15.33118833555221
