OBJECT_NAME,OBJECT_ID,EPOCH,MEAN_MOTION,ECCENTRICITY,INCLINATION,RA_OF_ASC_NODE,ARG_OF_PERICENTER,MEAN_ANOMALY,EPHEMERIS_TYPE,CLASSIFICATION_TYPE,NORAD_CAT_ID,ELEMENT_SET_NO,REV_AT_EPOCH,BSTAR,MEAN_MOTION_DOT,MEAN_MOTION_DDOT
KAZEOSAT 2,2014-033A,2026-06-19T20:34:12.190656,14.85474943,.0007588,97.5402,10.3273,320.0964,39.9693,0,U,40010,999,64935,.11733E-3,.962E-5,0
HODOYOSHI-4,2014-033B,2026-06-19T20:35:44.167776,14.88131317,.0022351,97.5450,355.5508,298.9512,60.9464,0,U,40011,999,64920,.95792E-4,.833E-5,0
DEIMOS-2,2014-033D,2026-06-19T20:42:15.767136,14.93730044,.0001374,97.5817,45.2570,56.6165,303.5186,0,U,40013,999,63812,.11823E-3,.1197E-4,0
HODOYOSHI-3,2014-033F,2026-06-19T08:10:32.225664,14.85392088,.00324885,97.6420,333.2944,350.1791,9.8786,0,U,40015,999,64794,.93398962E-4,.758E-5,0
SPOT 7,2014-034A,2026-06-19T20:27:48.837312,14.60959574,.0001253,98.0623,233.2759,95.5381,264.5963,0,U,40053,999,63752,.32354E-4,.113E-5,0
SKYSAT-B,2014-037D,2026-06-19T08:15:36.707904,14.88032683,.00041588,98.3840,129.4321,272.5492,87.5247,0,U,40072,999,64628,.11650803E-3,.1009E-4,0
WORLDVIEW-3 (WV-3),2014-048A,2026-06-19T20:42:06.403104,14.85025626,.000077,97.8566,245.6586,22.0597,338.0651,0,U,40115,999,64230,.79315E-4,.624E-5,0
GAOFEN-2,2014-049A,2026-06-19T21:05:50.303616,14.80901104,.0006327,98.0104,235.0839,216.0750,144.0036,0,U,40118,999,63963,.8507E-4,.604E-5,0
YAOGAN-21,2014-053A,2026-06-19T20:24:36.675936,15.26402515,.000987,97.1469,210.9717,86.3253,273.9115,0,U,40143,999,65536,.19053E-3,.4895E-4,0
YAOGAN-22,2014-063A,2026-06-19T20:20:21.884064,13.15531021,.0006406,100.7728,322.1649,179.3860,180.7260,0,U,40275,999,56016,.583E-4,-.25E-6,0
ASNARO,2014-070A,2026-06-19T20:37:28.983072,15.19464609,.0005903,97.3448,246.9011,156.3416,203.8091,0,U,40298,999,64441,.24621E-3,.5157E-4,0
YAOGAN-24,2014-072A,2026-06-19T20:40:01.606080,14.76224727,.0012571,98.1499,308.2217,254.0792,105.9032,0,U,40310,999,62411,.50074E-4,.294E-5,0
CBERS 4,2014-079A,2026-06-19T19:48:25.011072,14.35509300,.0001744,98.3525,227.5743,62.2891,297.8472,0,U,40336,999,60433,.85748E-5,-.18E-6,0
YAOGAN-26,2014-088A,2026-06-19T20:23:25.485792,15.47431510,.0005784,97.0647,170.9958,62.0947,298.0889,0,U,40362,999,63811,.22156E-3,.11274E-3,0
SMAP,2015-003A,2026-06-19T19:33:31.209120,14.63368496,.0001354,98.1275,177.8722,96.8202,263.3154,0,U,40376,999,60800,.69147E-4,.31E-5,0
KOMPSAT-3A,2015-014A,2026-06-19T19:37:10.784352,15.54096657,.0056741,97.6890,162.3725,164.9638,195.3318,0,U,40536,999,62222,.3426E-3,.23776E-3,0
SENTINEL-2A,2015-028A,2026-06-19T19:15:02.030976,14.30816128,.0001103,98.5681,245.6167,91.7226,268.4084,0,U,40697,999,57410,.5796E-4,.108E-5,0
GAOFEN-8,2015-030A,2026-06-19T20:54:10.869696,15.46040138,.0008959,97.6904,4.4023,176.8304,183.3002,0,U,40701,999,61186,.42497E-3,.2072E-3,0
CARBONITE 1 (CBNT-1),2015-032D,2026-06-19T19:30:33.244128,14.83593728,.0013076,97.6509,348.7690,288.8991,71.0806,0,U,40718,999,58973,.14391E-3,.1137E-4,0
YAOGAN-27,2015-040A,2026-06-19T22:00:59.143680,13.16070831,.000775,100.1157,157.1818,203.6186,156.4573,0,U,40878,999,51802,.12991E-3,.7E-7,0
GAOFEN-9 01,2015-047A,2026-06-19T19:53:59.982144,14.82887958,.0028552,97.6279,206.4040,129.5121,230.8625,0,U,40894,999,58058,.95068E-4,.725E-5,0
YAOGAN-28,2015-064A,2026-06-19T21:03:53.658432,15.27448646,.0010888,97.3083,309.0843,173.8478,186.2897,0,U,41026,999,59109,.20249E-3,.5375E-4,0
YAOGAN-29,2015-069A,2026-06-19T21:02:12.522912,14.83084768,.0002495,98.0022,199.5139,49.7958,310.3473,0,U,41038,999,57102,-.39493E-4,-.376E-5,0
KENT RIDGE 1,2015-077B,2026-06-19T14:04:23.532672,15.23144229,.00082501,14.9791,248.1477,272.4275,87.5102,0,U,41167,999,58146,.10530968E-3,.3326E-4,0
GAOFEN-4,2015-083A,2026-06-19T20:29:21.757056,1.00273464,.0004246,0.3655,83.7535,119.1504,118.1954,0,U,41194,999,3855,0,-.34E-5,0
JASON-3,2016-002A,2026-06-19T21:02:02.256000,12.87628096,.0008484,66.0406,120.1811,272.6626,87.3421,0,U,41240,999,48759,.47611E-4,-.5E-6,0
SENTINEL-3A,2016-011A,2026-06-19T19:28:21.540288,14.26733276,.0001415,98.6249,238.1574,99.4675,260.6666,0,U,41335,999,53843,.29289E-4,.27E-6,0
ZIYUAN 3-02 (ZY 3-02),2016-033A,2026-06-19T21:16:33.184416,15.21200935,.0012366,97.3832,246.6100,281.0781,78.9064,0,U,41556,999,55839,.19785E-3,.4352E-4,0
CARTOSAT-2C,2016-040A,2026-06-19T19:50:44.278368,15.19207199,.0010218,97.4477,230.7691,122.7248,237.4973,0,U,41599,999,55411,.1253E-3,.2572E-4,0
SKYSAT-C1,2016-040C,2026-06-19T13:28:03.213984,15.36334265,.00032707,96.9557,202.1525,53.7576,306.3971,0,U,41601,999,55823,.2102401E-3,.7375E-4,0
LAPAN-A3,2016-040E,2026-06-19T20:48:45.491616,15.33118833,.0010561,97.1491,166.9248,16.7454,343.4135,0,U,41603,999,55522,.86474E-4,.2695E-4,0
